STARLINK-36083          
1 66857U 25281K   25361.91671296 -.00100907  00000+0 -17353-2 0  9997
2 66857  43.0005  30.8612 0001253 261.9831 153.9867 15.50597470  3822
STARLINK-35118          
1 66858U 25281L   25361.91671296 -.00074501  00000+0 -12758-2 0  9992
2 66858  43.0006  30.8562 0001573 248.6045 169.2750 15.50588115  3616
STARLINK-35646          
1 66859U 25281M   25361.91671296 -.00067969  00000+0 -11626-2 0  9996
2 66859  43.0004  30.8517 0001223 258.7907 161.0065 15.50584810  3826
STARLINK-35987          
1 66860U 25281N   25361.91671296 -.00049884  00000+0 -84997-3 0  9996
2 66860  43.0005  30.8277 0001688 261.2883 168.0942 15.50575796  3823
STARLINK-35991          
1 66861U 25281P   25361.91671296 -.00107238  00000+0 -18445-2 0  9999
2 66861  43.0005  30.8416 0001127 257.3171 166.2924 15.50621119  3824
STARLINK-35974          
1 66862U 25281Q   25361.91671296 -.00094158  00000+0 -16176-2 0  9995
2 66862  43.0006  30.8470 0001269 263.8118 157.9089 15.50595837  3721
STARLINK-36134          
1 66863U 25281R   25361.91671296 -.00090925  00000+0 -15604-2 0  9999
2 66863  43.0004  30.8371 0001127 258.2875 167.2420 15.50610720  3824
STARLINK-36070          
1 66864U 25281S   25361.91671296 -.00083315  00000+0 -14287-2 0  9991
2 66864  43.0006  30.8329 0001235 260.7168 166.7467 15.50593876  3853
STARLINK-36117          
1 66865U 25281T   25361.91671296 -.00057343  00000+0 -97863-3 0  9996
2 66865  43.0005  30.8231 0001500 263.1080 168.1933 15.50583432  3828
STARLINK-36126          
1 66866U 25281U   25361.91671296 -.00113584  00000+0 -19554-2 0  9997
2 66866  43.0004  30.8176 0001207 267.4719 165.7234 15.50623672  3857
STARLINK-36101          
1 66867U 25281V   25361.91671296 -.00057936  00000+0 -98900-3 0  9999
2 66867  43.0005  30.8133 0001307 251.5054 183.6281 15.50580286  3662
STARLINK-36108          
1 66868U 25281W   25361.91671296 -.00062921  00000+0 -10752-2 0  9998
2 66868  43.0006  30.8084 0001414 260.0281 177.0236 15.50581957  3668
